MONITOR-4 (RS57S)       
1 57182U 23091S   24025.79549818  .00008867  00000+0  61251-3 0  9998
2 57182  97.6380  79.4263 0016884 243.3880 116.5617 15.05870243 31909
MONITOR-2 (RS39S)       
1 57184U 23091U   24025.78536992  .00005178  00000+0  35939-3 0  9994
2 57184  97.6379  79.6053 0013326 236.2809 123.7148 15.05944144 31910
SVYATOBOR 1 (RS60S)     
1 57187U 23091X   24025.78570126  .00007772  00000+0  52508-3 0  9997
2 57187  97.6380  79.7615 0013003 233.9389 126.0634 15.06788556 31920
HORS 1                  
1 57188U 23091Y   24025.84651241  .00006604  00000+0  44695-3 0  9994
2 57188  97.6358  79.7917 0012488 235.5943 124.4105 15.06785897 31932
VIZARD-METEO (RS38S)    
1 57189U 23091Z   24025.84385182  .00010161  00000+0  67003-3 0  9994
2 57189  97.6370  79.9713 0012151 232.0712 127.9418 15.07614706 31943
NANOZOND 1 (RS49S)      
1 57190U 23091AA  24025.82063152  .00014415  00000+0  91654-3 0  9999
2 57190  97.6355  80.0821 0010568 237.7356 122.2849 15.08880751 31950
SITRO-AIS 6 (CHIRKIN)   
1 57192U 23091AC  24025.80103475  .00009513  00000+0  65656-3 0  9998
2 57192  97.6364  79.3675 0016706 248.5850 111.3594 15.05886805 31903
SITRO-AIS 8 (ANOKHIN)   
1 57193U 23091AD  24025.79030398  .00009501  00000+0  65305-3 0  9998
2 57193  97.6358  79.3775 0016575 249.9719 109.9723 15.06040167 31902
SITRO-AIS 7 (FARTUSHNIY)
1 57194U 23091AE  24025.80236575  .00009343  00000+0  64558-3 0  9999
2 57194  97.6363  79.3620 0016561 249.1289 110.8165 15.05850545 31906
AVION KALUGA 650        
1 57195U 23091AF  24025.81110748  .00006612  00000+0  45418-3 0  9994
2 57195  97.6400  79.7636 0012483 237.0782 122.9244 15.06232924 31923
HORS 2                  
1 57196U 23091AG  24025.81245035  .00009995  00000+0  66512-3 0  9998
2 57196  97.6381  79.8701 0012246 235.9423 124.0642 15.07279236 31936
A-SEANSAT-PG1           
1 57197U 23091AH  24025.79715806  .00010263  00000+0  67892-3 0  9996
2 57197  97.6364  79.8328 0011834 238.1522 121.8555 15.07496673 31934
