[{"OBJECT_NAME":"MONITOR-4 (RS57S)","OBJECT_ID":"2023-091S","EPOCH":"2024-01-25T19:05:31.042752","MEAN_MOTION":15.05870243,"ECCENTRICITY":0.0016884,"INCLINATION":97.638,"RA_OF_ASC_NODE":79.4263,"ARG_OF_PERICENTER":243.388,"MEAN_ANOMALY":116.5617,"EPHEMERIS_TYPE":0,"CLASSIFICATION_TYPE":"U","NORAD_CAT_ID":57182,"ELEMENT_SET_NO":999,"REV_AT_EPOCH":3190,"BSTAR":0.00061251,"MEAN_MOTION_DOT":8.867e-5,"MEAN_MOTION_DDOT":0},{"OBJECT_NAME":"MONITOR-2 (RS39S)","OBJECT_ID":"2023-091U","EPOCH":"2024-01-25T18:50:55.961088","MEAN_MOTION":15.05944144,"ECCENTRICITY":0.0013326,"INCLINATION":97.6379,"RA_OF_ASC_NODE":79.6053,"ARG_OF_PERICENTER":236.2809,"MEAN_ANOMALY":123.7148,"EPHEMERIS_TYPE":0,"CLASSIFICATION_TYPE":"U","NORAD_CAT_ID":57184,"ELEMENT_SET_NO":999,"REV_AT_EPOCH":3191,"BSTAR":0.00035939,"MEAN_MOTION_DOT":5.178e-5,"MEAN_MOTION_DDOT":0},{"OBJECT_NAME":"SVYATOBOR 1 (RS60S)","OBJECT_ID":"2023-091X","EPOCH":"2024-01-25T18:51:24.588864","MEAN_MOTION":15.06788556,"ECCENTRICITY":0.0013003,"INCLINATION":97.638,"RA_OF_ASC_NODE":79.7615,"ARG_OF_PERICENTER":233.9389,"MEAN_ANOMALY":126.0634,"EPHEMERIS_TYPE":0,"CLASSIFICATION_TYPE":"U","NORAD_CAT_ID":57187,"ELEMENT_SET_NO":999,"REV_AT_EPOCH":3192,"BSTAR":0.00052508,"MEAN_MOTION_DOT":7.772e-5,"MEAN_MOTION_DDOT":0},{"OBJECT_NAME":"HORS 1","OBJECT_ID":"2023-091Y","EPOCH":"2024-01-25T20:18:58.672224","MEAN_MOTION":15.06785897,"ECCENTRICITY":0.0012488,"INCLINATION":97.6358,"RA_OF_ASC_NODE":79.7917,"ARG_OF_PERICENTER":235.5943,"MEAN_ANOMALY":124.4105,"EPHEMERIS_TYPE":0,"CLASSIFICATION_TYPE":"U","NORAD_CAT_ID":57188,"ELEMENT_SET_NO":999,"REV_AT_EPOCH":3193,"BSTAR":0.00044695,"MEAN_MOTION_DOT":6.604e-5,"MEAN_MOTION_DDOT":0},{"OBJECT_NAME":"VIZARD-METEO (RS38S)","OBJECT_ID":"2023-091Z","EPOCH":"2024-01-25T20:15:08.797248","MEAN_MOTION":15.07614706,"ECCENTRICITY":0.0012151,"INCLINATION":97.637,"RA_OF_ASC_NODE":79.9713,"ARG_OF_PERICENTER":232.0712,"MEAN_ANOMALY":127.9418,"EPHEMERIS_TYPE":0,"CLASSIFICATION_TYPE":"U","NORAD_CAT_ID":57189,"ELEMENT_SET_NO":999,"REV_AT_EPOCH":3194,"BSTAR":0.00067003,"MEAN_MOTION_DOT":0.00010161,"MEAN_MOTION_DDOT":0},{"OBJECT_NAME":"NANOZOND 1 (RS49S)","OBJECT_ID":"2023-091AA","EPOCH":"2024-01-25T19:41:42.563328","MEAN_MOTION":15.08880751,"ECCENTRICITY":0.0010568,"INCLINATION":97.6355,"RA_OF_ASC_NODE":80.0821,"ARG_OF_PERICENTER":237.7356,"MEAN_ANOMALY":122.2849,"EPHEMERIS_TYPE":0,"CLASSIFICATION_TYPE":"U","NORAD_CAT_ID":57190,"ELEMENT_SET_NO":999,"REV_AT_EPOCH":3195,"BSTAR":0.00091654,"MEAN_MOTION_DOT":0.00014415,"MEAN_MOTION_DDOT":0},{"OBJECT_NAME":"SITRO-AIS 6 (CHIRKIN)","OBJECT_ID":"2023-091AC","EPOCH":"2024-01-25T19:13:29.402400","MEAN_MOTION":15.05886805,"ECCENTRICITY":0.0016706,"INCLINATION":97.6364,"RA_OF_ASC_NODE":79.3675,"ARG_OF_PERICENTER":248.585,"MEAN_ANOMALY":111.3594,"EPHEMERIS_TYPE":0,"CLASSIFICATION_TYPE":"U","NORAD_CAT_ID":57192,"ELEMENT_SET_NO":999,"REV_AT_EPOCH":3190,"BSTAR":0.00065656,"MEAN_MOTION_DOT":9.513e-5,"MEAN_MOTION_DDOT":0},{"OBJECT_NAME":"SITRO-AIS 8 (ANOKHIN)","OBJECT_ID":"2023-091AD","EPOCH":"2024-01-25T18:58:02.263872","MEAN_MOTION":15.06040167,"ECCENTRICITY":0.0016575,"INCLINATION":97.6358,"RA_OF_ASC_NODE":79.3775,"ARG_OF_PERICENTER":249.9719,"MEAN_ANOMALY":109.9723,"EPHEMERIS_TYPE":0,"CLASSIFICATION_TYPE":"U","NORAD_CAT_ID":57193,"ELEMENT_SET_NO":999,"REV_AT_EPOCH":3190,"BSTAR":0.00065305,"MEAN_MOTION_DOT":9.501e-5,"MEAN_MOTION_DDOT":0},{"OBJECT_NAME":"SITRO-AIS 7 (FARTUSHNIY)","OBJECT_ID":"2023-091AE","EPOCH":"2024-01-25T19:15:24.400800","MEAN_MOTION":15.05850545,"ECCENTRICITY":0.0016561,"INCLINATION":97.6363,"RA_OF_ASC_NODE":79.362,"ARG_OF_PERICENTER":249.1289,"MEAN_ANOMALY":110.8165,"EPHEMERIS_TYPE":0,"CLASSIFICATION_TYPE":"U","NORAD_CAT_ID":57194,"ELEMENT_SET_NO":999,"REV_AT_EPOCH":3190,"BSTAR":0.00064558,"MEAN_MOTION_DOT":9.343e-5,"MEAN_MOTION_DDOT":0},{"OBJECT_NAME":"AVION KALUGA 650","OBJECT_ID":"2023-091AF","EPOCH":"2024-01-25T19:27:59.686272","MEAN_MOTION":15.06232924,"ECCENTRICITY":0.0012483,"INCLINATION":97.64,"RA_OF_ASC_NODE":79.7636,"ARG_OF_PERICENTER":237.0782,"MEAN_ANOMALY":122.9244,"EPHEMERIS_TYPE":0,"CLASSIFICATION_TYPE":"U","NORAD_CAT_ID":57195,"ELEMENT_SET_NO":999,"REV_AT_EPOCH":3192,"BSTAR":0.00045418,"MEAN_MOTION_DOT":6.612e-5,"MEAN_MOTION_DDOT":0},{"OBJECT_NAME":"HORS 2","OBJECT_ID":"2023-091AG","EPOCH":"2024-01-25T19:29:55.710240","MEAN_MOTION":15.07279236,"ECCENTRICITY":0.0012246,"INCLINATION":97.6381,"RA_OF_ASC_NODE":79.8701,"ARG_OF_PERICENTER":235.9423,"MEAN_ANOMALY":124.0642,"EPHEMERIS_TYPE":0,"CLASSIFICATION_TYPE":"U","NORAD_CAT_ID":57196,"ELEMENT_SET_NO":999,"REV_AT_EPOCH":3193,"BSTAR":0.00066512,"MEAN_MOTION_DOT":9.995e-5,"MEAN_MOTION_DDOT":0},{"OBJECT_NAME":"A-SEANSAT-PG1","OBJECT_ID":"2023-091AH","EPOCH":"2024-01-25T19:07:54.456384","MEAN_MOTION":15.07496673,"ECCENTRICITY":0.0011834,"INCLINATION":97.6364,"RA_OF_ASC_NODE":79.8328,"ARG_OF_PERICENTER":238.1522,"MEAN_ANOMALY":121.8555,"EPHEMERIS_TYPE":0,"CLASSIFICATION_TYPE":"U","NORAD_CAT_ID":57197,"ELEMENT_SET_NO":999,"REV_AT_EPOCH":3193,"BSTAR":0.00067892,"MEAN_MOTION_DOT":0.00010263,"MEAN_MOTION_DDOT":0}]
